H1 CPF 01  gfz 2022 07 15 00  6961 terrasarx 
H2 0702601  6201 31698    2022 07 15 00 59 42 2022 07 20 00 00 42   120 1 1  0 0 0
H9
10 0 59779  55422.000000  0    5347868.850   4307476.744    550098.341
10 0 59779  55542.000000  0    5354007.659   4084901.586   1444938.685
10 0 59779  55662.000000  0    5262024.796   3791657.074   2314336.133
10 0 59779  55782.000000  0    5072342.791   3434577.635   3142978.308
10 0 59779  55902.000000  0    4787237.242   3021601.643   3916277.126
10 0 59779  56022.000000  0    4410810.032   2561595.089   4620630.883
10 0 59779  56142.000000  0    3948927.223   2064159.659   5243664.493
10 0 59779  56262.000000  0    3409120.830   1539431.398   5774448.000
10 0 59779  56382.000000  0    2800457.787    997871.427   6203684.327
10 0 59779  56502.000000  0    2133381.381    450055.439   6523864.900
10 0 59779  56622.000000  0    1419528.563    -93531.739   6729394.229
10 0 59779  56742.000000  0     671524.694   -622695.798   6816684.141
10 0 59779  56862.000000  0     -97241.641  -1127724.259   6784212.413
10 0 59779  56982.000000  0    -872858.358  -1599564.104   6632546.889
10 0 59779  57102.000000  0   -1641141.011  -2029984.141   6364335.037
10 0 59779  57222.000000  0   -2387890.009  -2411717.989   5984259.566
10 0 59779  57342.000000  0   -3099151.711  -2738587.433   5498964.201
10 0 59779  57462.000000  0   -3761483.340  -3005605.972   4916945.349
10 0 59779  57582.000000  0   -4362212.020  -3209057.278   4248407.292
10 0 59779  57702.000000  0   -4889682.364  -3346547.552   3505086.997
10 0 59779  57822.000000  0   -5333488.658  -3417030.971   2700050.864
10 0 59779  57942.000000  0   -5684687.677  -3420808.488   1847465.717
10 0 59779  58062.000000  0   -5935985.715  -3359498.977    962345.371
10 0 59779  58182.000000  0   -6081893.751  -3235981.769     60279.503
10 0 59779  58302.000000  0   -6118847.775  -3054313.309   -842848.780
10 0 59779  58422.000000  0   -6045290.790  -2819619.617  -1731152.633
10 0 59779  58542.000000  0   -5861712.150  -2537966.415  -2589030.049
10 0 59779  58662.000000  0   -5570645.911  -2216212.106  -3401443.395
10 0 59779  58782.000000  0   -5176628.904  -1861847.288  -4154186.050
10 0 59779  58902.000000  0   -4686119.951  -1482824.779  -4834129.899
10 0 59779  59022.000000  0   -4107383.296  -1087384.616  -5429450.414
10 0 59779  59142.000000  0   -3450338.397   -683877.598  -5929824.763
10 0 59779  59262.000000  0   -2726381.305   -280592.080  -6326600.088
10 0 59779  59382.000000  0   -1948181.882    114412.498  -6612931.459
10 0 59779  59502.000000  0   -1129459.845    493461.770  -6783888.438
10 0 59779  59622.000000  0    -284745.492    849410.537  -6836530.297
10 0 59779  59742.000000  0     570872.436   1175773.922  -6769950.367
10 0 59779  59862.000000  0    1422008.603   1466841.448  -6585291.485
10 0 59779  59982.000000  0    2253252.465   1717775.635  -6285730.109
10 0 59779  60102.000000  0    3049442.313   1924691.914  -5876427.229
10 0 59779  60222.000000  0    3795938.287   2084718.333  -5364447.403
10 0 59779  60342.000000  0    4478890.240   2196035.070  -4758648.497
10 0 59779  60462.000000  0    5085498.570   2257893.300  -4069539.888
10 0 59779  60582.000000  0    5604260.345   2270611.774  -3309109.442
10 0 59779  60702.000000  0    6025195.804   2235551.314  -2490623.191
10 0 59779  60822.000000  0    6340052.050   2155067.728  -1628398.431
10 0 59779  60942.000000  0    6542475.270   2032443.268   -737552.741
10 0 59779  61062.000000  0    6628148.531   1871797.763    166264.504
10 0 59779  61182.000000  0    6594888.589   1677981.125   1067154.540
10 0 59779  61302.000000  0    6442701.037   1456451.238   1949255.052
10 0 59779  61422.000000  0    6173793.452   1213138.905   2797029.391
10 0 59779  61542.000000  0    5792541.468    954303.248   3595548.611
10 0 59779  61662.000000  0    5305411.856    686382.365   4330761.213
10 0 59779  61782.000000  0    4720843.524    415842.440   4989742.920
10 0 59779  61902.000000  0    4049092.685    149030.068   5560924.694
10 0 59779  62022.000000  0    3302042.095   -107970.769   6034294.080
10 0 59779  62142.000000  0    2492981.839   -349471.084   6401564.526
10 0 59779  62262.000000  0    1636367.794   -570297.655   6656314.542
10 0 59779  62382.000000  0     747559.676   -765900.387   6794095.283
10 0 59779  62502.000000  0    -157457.288   -932443.947   6812503.141
10 0 59779  62622.000000  0   -1062359.720  -1066881.875   6711217.871
10 0 59779  62742.000000  0   -1950779.327  -1167012.378   6492007.038
10 0 59779  62862.000000  0   -2806597.084  -1231514.024   6158696.398
10 0 59779  62982.000000  0   -3614234.777  -1259961.385   5717109.036
10 0 59779  63102.000000  0   -4358942.414  -1252821.579   5174971.019
10 0 59779  63222.000000  0   -5027073.702  -1211431.325   4541782.085
10 0 59779  63342.000000  0   -5606343.934  -1137953.633   3828653.402
10 0 59779  63462.000000  0   -6086063.978  -1035315.397   3048114.968
10 0 59779  63582.000000  0   -6457346.421   -907127.335   2213897.370
10 0 59779  63702.000000  0   -6713281.626   -757588.088   1340688.954
10 0 59779  63822.000000  0   -6849074.805   -591374.487    443870.544
10 0 59779  63942.000000  0   -6862140.122   -413520.759   -460763.532
10 0 59779  64062.000000  0   -6752150.914   -229289.612  -1357292.679
10 0 59779  64182.000000  0   -6521043.152    -44038.560  -2229958.821
10 0 59779  64302.000000  0   -6172975.461    136914.156  -3063449.327
10 0 59779  64422.000000  0   -5714245.007    308422.104  -3843172.075
10 0 59779  64542.000000  0   -5153160.110    465637.685  -4555512.401
10 0 59779  64662.000000  0   -4499876.440    604130.032  -5188067.994
10 0 59779  64782.000000  0   -3766200.703    719991.937  -5729857.845
10 0 59779  64902.000000  0   -2965367.462    809932.442  -6171503.361
10 0 59779  65022.000000  0   -2111794.180    871353.784  -6505378.462
10 0 59779  65142.000000  0   -1220820.189    902412.439  -6725730.328
10 0 59779  65262.000000  0    -308432.216    902062.877  -6828767.667
10 0 59779  65382.000000  0     609016.162    870082.996  -6812717.536
10 0 59779  65502.000000  0    1515089.402    807081.244  -6677854.585
10 0 59779  65622.000000  0    2393558.992    714485.464  -6426498.126
10 0 59779  65742.000000  0    3228688.479    594513.676  -6062976.236
10 0 59779  65862.000000  0    4005511.694    450127.015  -5593558.173
10 0 59779  65982.000000  0    4710099.418    284964.642  -5026356.743
10 0 59779  66102.000000  0    5329812.741    103263.145  -4371200.150
10 0 59779  66222.000000  0    5853537.366    -90239.609  -3639471.837
10 0 59779  66342.000000  0    6271892.394   -290414.048  -2843921.333
10 0 59779  66462.000000  0    6577410.932   -491859.941  -1998448.638
10 0 59779  66582.000000  0    6764686.652   -689036.129  -1117862.774
10 0 59779  66702.000000  0    6830480.879   -876395.391   -217620.330
10 0 59779  66822.000000  0    6773788.118  -1048521.780    686450.631
10 0 59779  66942.000000  0    6595857.054  -1200266.866   1578436.685
10 0 59779  67062.000000  0    6300166.698  -1326881.531   2442627.835
10 0 59779  67182.000000  0    5892356.035  -1424138.800   3263804.173
10 0 59779  67302.000000  0    5380110.477  -1488445.095   4027510.461
10 0 59779  67422.000000  0    4773008.795  -1516938.199   4720315.202
10 0 59779  67542.000000  0    4082334.235  -1507567.547   5330048.155
10 0 59779  67662.000000  0    3320855.766  -1459155.787   5846013.185
10 0 59779  67782.000000  0    2502582.819  -1371441.378   6259172.282
10 0 59779  67902.000000  0    1642501.355  -1245100.982   6562297.868
10 0 59779  68022.000000  0     756295.019  -1081751.478   6750093.998
10 0 59779  68142.000000  0    -139943.718   -883930.448   6819283.049
10 0 59779  68262.000000  0   -1030005.747   -655056.588   6768657.956
10 0 59779  68382.000000  0   -1897856.933   -399370.786   6599101.488
10 0 59779  68502.000000  0   -2727925.391   -121857.973   6313571.851
10 0 59779  68622.000000  0   -3505380.549    171848.753   5917055.466
10 0 59779  68742.000000  0   -4216400.686    475580.100   5416485.985
10 0 59779  68862.000000  0   -4848423.780    782756.977   4820628.986
10 0 59779  68982.000000  0   -5390376.892   1086529.158   4139934.288
10 0 59779  69102.000000  0   -5832878.768   1379923.737   3386356.065
10 0 59779  69222.000000  0   -6168411.053   1655999.926   2573145.002
10 0 59779  69342.000000  0   -6391455.271   1908006.707   1714614.710
10 0 59779  69462.000000  0   -6498591.872   2129539.768    825886.136
10 0 59779  69582.000000  0   -6488557.157   2314694.045    -77386.258
10 0 59779  69702.000000  0   -6362255.959   2458206.579   -979299.025
10 0 59779  69822.000000  0   -6122730.582   2555586.783  -1863988.523
10 0 59779  69942.000000  0   -5775087.454   2603231.472  -2715918.280
10 0 59779  70062.000000  0   -5326381.435   2598520.970  -3520158.958
10 0 59779  70182.000000  0   -4785462.619   2539893.208  -4262652.663
10 0 59779  70302.000000  0   -4162791.112   2426895.418  -4930457.364
10 0 59779  70422.000000  0   -3470224.192   2260212.577  -5511966.660
10 0 59779  70542.000000  0   -2720783.108   2041672.877  -5997102.081
10 0 59779  70662.000000  0   -1928403.892   1774230.174  -6377478.082
10 0 59779  70782.000000  0   -1107675.099   1461923.354  -6646535.396
10 0 59779  70902.000000  0    -273571.402   1109814.381  -6799642.344
10 0 59779  71022.000000  0     558814.307    723906.452  -6834165.308
10 0 59779  71142.000000  0    1374536.619    311043.879  -6749510.661
10 0 59779  71262.000000  0    2159061.166   -121206.939  -6547134.451
10 0 59779  71382.000000  0    2898517.453   -564692.461  -6230519.423
10 0 59779  71502.000000  0    3579940.942  -1010821.367  -5805121.685
10 0 59779  71622.000000  0    4191498.449  -1450725.879  -5278285.456
10 0 59779  71742.000000  0    4722696.551  -1875434.270  -4659128.680
10 0 59779  71862.000000  0    5164567.703  -2276051.380  -3958396.068
99
